NIMIQ 2                 
1 27632U 02062A   26189.62051546 -.00000062  00000+0  00000+0 0  9992
2 27632   9.4925  56.6665 0005341  50.6807 293.4284  1.00270258 44391
USA 167                 
1 27691U 03008A   26189.61808878  .00000009  00000+0  00000+0 0  9995
2 27691  11.0014  43.2107 0003135 309.3873  34.7727  1.00271079  6986
USA 169 (MILSTAR-2 4)   
1 27711U 03012A   26189.88609895 -.00000193  00000+0  00000+0 0  9995
2 27711  12.3807  29.6584 0099658  10.0800 358.1984  1.00269507 33173
ASIASAT 4               
1 27718U 03014A   26189.61101360 -.00000211  00000+0  00000+0 0  9990
2 27718   4.7574  75.4779 0002884  31.9930 186.5983  1.00271361 45516
HELLAS-SAT 2            
1 27811U 03020A   26189.85401111 -.00000076  00000+0  00000+0 0  9993
2 27811   7.4053  67.6222 0003365  73.5924  83.0033  1.00271519 43068
THURAYA-2               
1 27825U 03026A   26189.22294367  .00000133  00000+0  00000+0 0  9991
2 27825   8.8710  31.8806 0002816  20.1835 358.3785  1.00271055 84565
OPTUS C1                
1 27831U 03028B   26189.88687895 -.00000143  00000+0  00000+0 0  9996
2 27831   6.9406  69.1440 0005303  36.5357 296.1699  1.00270013 53275
USA 170                 
1 27875U 03040A   26188.79142721  .00000134  00000+0  00000+0 0  9990
2 27875  10.5410  47.7472 0001970  82.0374 105.0781  1.00273388 33206
GALAXY 13 (HORIZONS-1)  
1 27954U 03044A   26189.75496624  .00000146  00000+0  00000+0 0  9996
2 27954   1.4737  83.5895 0001762  25.0813 299.8354  1.00275052 46781
YAMAL 202               
1 28089U 03053A   26189.88835229 -.00000071  00000+0  00000+0 0  9996
2 28089   6.3957  70.6755 0003440  32.8669 306.6473  1.00272238 82918
UFO 11 (USA 174)        
1 28117U 03057A   26189.58576234 -.00000097  00000+0  00000+0 0  9995
2 28117   8.9484  33.7214 0002698  85.2865  94.0153  1.00272454 82662
USA 176 (DSP 22)        
1 28158U 04004A   26189.41845992 -.00000290  00000+0  00000+0 0  9990
2 28158  12.0895  25.9067 0000913 285.9645  75.8274  1.00268529 33150
ABS-4 (MOBISAT-1)       
1 28184U 04007A   26189.79666522  .00000049  00000+0  00000+0 0  9994
2 28184   6.0945  71.7443 0004609  35.8342 166.8926  1.00271781 52551
INTELSAT 10-02          
1 28358U 04022A   26189.85574444  .00000003  00000+0  00000+0 0  9992
2 28358   0.0473 261.1921 0000498 320.5096  12.1671  1.00270928 80779
ANIK F2                 
1 28378U 04027A   26189.60897559 -.00000038  00000+0  00000+0 0  9996
2 28378   3.3397  79.1584 0003677  27.9528 287.5567  1.00271081 41471
AMC-15                  
1 28446U 04041A   26189.90646571 -.00000074  00000+0  00000+0 0  9997
2 28446   0.0310 307.0593 0002289 174.1680  26.8985  1.00271179 79524
NSS-10                  
1 28526U 05003A   26189.49208337 -.00000242  00000+0  00000+0 0  9990
2 28526   6.4996  70.1927 0002785  41.9858 313.9625  1.00270539 53365
INMARSAT 4-F1           
1 28628U 05009A   26189.89121230  .00000043  00000+0  00000+0 0  9997
2 28628   5.1958  42.7740 0002627  71.1502 311.8560  1.00271355 77892
DIRECTV 8               
1 28659U 05019A   26189.61852212  .00000016  00000+0  00000+0 0  9993
2 28659   0.0167  53.6513 0003117  67.6792 268.8591  1.00271899 77288
GALAXY 28 (G-28)        
1 28702U 05022A   26189.85054442 -.00000189  00000+0  00000+0 0  9993
2 28702   3.3510  78.6705 0002150  33.1230  94.1019  1.00270484 52193
THAICOM 4               
1 28786U 05028A   26189.80832670 -.00000348  00000+0  00000+0 0  9990
2 28786   0.2980  85.5982 0001525  11.7891 239.8613  1.00269185 52460
ANIK F1R                
1 28868U 05036A   26189.83467350 -.00000064  00000+0  00000+0 0  9997
2 28868   4.3648  76.3110 0003863  23.0238  20.6298  1.00271414 46675
SYRACUSE 3A             
1 28885U 05041B   26189.86521218  .00000139  00000+0  00000+0 0  9991
2 28885   4.6959  75.5729 0002761  24.2860 185.0476  1.00271337 75961
INMARSAT 4-F2           
1 28899U 05044A   26189.88419227 -.00000250  00000+0  00000+0 0  9992
2 28899   5.1219  43.6470 0002986  56.2653 288.7170  1.00271641 75739
METEOSAT-9 (MSG-2)      
1 28912U 05049B   26189.19434939  .00000132  00000+0  00000+0 0  9992
2 28912   9.4059  53.9555 0002121 359.9500 347.9048  1.00269147  7204
EUTELSAT 174A           
1 28924U 05052A   26189.89043230  .00000019  00000+0  00000+0 0  9990
2 28924   4.2704  76.2590 0005868  33.8920 311.2075  1.00269839 52548
ECHOSTAR 10             
1 28935U 06003A   26189.60889903 -.00000041  00000+0  00000+0 0  9999
2 28935   0.0448 293.3144 0001137 159.4581 302.8142  1.00271691 74677
SPAINSAT                
1 28945U 06007A   26189.28884931 -.00000202  00000+0  00000+0 0  9993
2 28945   0.6147  86.1867 0004793  19.9088 253.9596  1.00271285 74424
JCSAT-5A                
1 29045U 06010A   26189.81084005 -.00000314  00000+0  00000+0 0  9996
2 29045   1.1622  83.9840 0001759  23.5363 243.1715  1.00269355 73981
ASTRA 1KR               
1 29055U 06012A   26189.85955780  .00000133  00000+0  00000+0 0  9998
2 29055   0.5266  83.1992 0003327  21.4700 150.5834  1.00273328 45914
GALAXY 16 (G-16)        
1 29236U 06023A   26189.90767905 -.00000113  00000+0  00000+0 0  9996
2 29236   0.0317 124.0742 0002513 349.3459  41.1958  1.00271748 73191
EUTELSAT 33F            
1 29270U 06032A   26189.79121127  .00000169  00000+0  00000+0 0  9991
2 29270   1.7142  82.0037 0003523  21.6664 140.9921  1.00268707 47520
