OBJECT_NAME,OBJECT_ID,EPOCH,MEAN_MOTION,ECCENTRICITY,INCLINATION,RA_OF_ASC_NODE,ARG_OF_PERICENTER,MEAN_ANOMALY,EPHEMERIS_TYPE,CLASSIFICATION_TYPE,NORAD_CAT_ID,ELEMENT_SET_NO,REV_AT_EPOCH,BSTAR,MEAN_MOTION_DOT,MEAN_MOTION_DDOT
NIMIQ 2,2002-062A,2026-07-08T14:53:32.535744,1.00270258,.00053413,9.4925,56.6665,50.6807,293.4284,0,U,27632,999,4439,0,-.62E-6,0
USA 167,2003-008A,2026-07-08T14:50:02.870592,1.00271079,.00031359,11.0014,43.2107,309.3873,34.7727,0,U,27691,999,698,0,.9E-7,0
USA 169 (MILSTAR-2 4),2003-012A,2026-07-08T21:15:58.949280,1.00269507,.00996582,12.3807,29.6584,10.0800,358.1984,0,U,27711,999,3317,0,-.193E-5,0
ASIASAT 4,2003-014A,2026-07-08T14:39:51.575040,1.00271361,.00028847,4.7574,75.4779,31.9930,186.5983,0,U,27718,999,4551,0,-.211E-5,0
HELLAS-SAT 2,2003-020A,2026-07-08T20:29:46.559904,1.00271519,.00033658,7.4053,67.6222,73.5924,83.0033,0,U,27811,999,4306,0,-.76E-6,0
THURAYA-2,2003-026A,2026-07-08T05:21:02.333088,1.00271055,.0002816,8.8710,31.8806,20.1835,358.3785,0,U,27825,999,8456,0,.133E-5,0
OPTUS C1,2003-028B,2026-07-08T21:17:06.341280,1.00270013,.00053031,6.9406,69.1440,36.5357,296.1699,0,U,27831,999,5327,0,-.143E-5,0
USA 170,2003-040A,2026-07-07T18:59:39.310944,1.00273388,.00019701,10.5410,47.7472,82.0374,105.0781,0,U,27875,999,3320,0,.134E-5,0
GALAXY 13 (HORIZONS-1),2003-044A,2026-07-08T18:07:09.083136,1.00275052,.00017624,1.4737,83.5895,25.0813,299.8354,0,U,27954,999,4678,0,.146E-5,0
YAMAL 202,2003-053A,2026-07-08T21:19:13.637856,1.00272238,.00034405,6.3957,70.6755,32.8669,306.6473,0,U,28089,999,8291,0,-.71E-6,0
UFO 11 (USA 174),2003-057A,2026-07-08T14:03:29.866176,1.00272454,.00026982,8.9484,33.7214,85.2865,94.0153,0,U,28117,999,8266,0,-.97E-6,0
USA 176 (DSP 22),2004-004A,2026-07-08T10:02:34.937088,1.00268529,.00009132,12.0895,25.9067,285.9645,75.8274,0,U,28158,999,3315,0,-.29E-5,0
ABS-4 (MOBISAT-1),2004-007A,2026-07-08T19:07:11.875008,1.00271781,.00046099,6.0945,71.7443,35.8342,166.8926,0,U,28184,999,5255,0,.49E-6,0
INTELSAT 10-02,2004-022A,2026-07-08T20:32:16.319616,1.00270928,.00004989,0.0473,261.1921,320.5096,12.1671,0,U,28358,999,8077,0,.3E-7,0
ANIK F2,2004-027A,2026-07-08T14:36:55.490976,1.00271081,.00036775,3.3397,79.1584,27.9528,287.5567,0,U,28378,999,4147,0,-.38E-6,0
AMC-15,2004-041A,2026-07-08T21:45:18.637344,1.00271179,.00022896,0.0310,307.0593,174.1680,26.8985,0,U,28446,999,7952,0,-.74E-6,0
NSS-10,2005-003A,2026-07-08T11:48:36.003168,1.00270539,.00027854,6.4996,70.1927,41.9858,313.9625,0,U,28526,999,5336,0,-.242E-5,0
INMARSAT 4-F1,2005-009A,2026-07-08T21:23:20.742720,1.00271355,.00026276,5.1958,42.7740,71.1502,311.8560,0,U,28628,999,7789,0,.43E-6,0
DIRECTV 8,2005-019A,2026-07-08T14:50:40.311168,1.00271899,.00031179,0.0167,53.6513,67.6792,268.8591,0,U,28659,999,7728,0,.16E-6,0
GALAXY 28 (G-28),2005-022A,2026-07-08T20:24:47.037888,1.00270484,.00021508,3.3510,78.6705,33.1230,94.1019,0,U,28702,999,5219,0,-.189E-5,0
THAICOM 4,2005-028A,2026-07-08T19:23:59.426880,1.00269185,.0001525,0.2980,85.5982,11.7891,239.8613,0,U,28786,999,5246,0,-.348E-5,0
ANIK F1R,2005-036A,2026-07-08T20:01:55.790400,1.00271414,.00038636,4.3648,76.3110,23.0238,20.6298,0,U,28868,999,4667,0,-.64E-6,0
SYRACUSE 3A,2005-041B,2026-07-08T20:45:54.332352,1.00271337,.00027613,4.6959,75.5729,24.2860,185.0476,0,U,28885,999,7596,0,.139E-5,0
INMARSAT 4-F2,2005-044A,2026-07-08T21:13:14.212128,1.00271641,.00029863,5.1219,43.6470,56.2653,288.7170,0,U,28899,999,7573,0,-.25E-5,0
METEOSAT-9 (MSG-2),2005-049B,2026-07-08T04:39:51.787296,1.00269147,.00021217,9.4059,53.9555,359.9500,347.9048,0,U,28912,999,720,0,.132E-5,0
EUTELSAT 174A,2005-052A,2026-07-08T21:22:13.350720,1.00269839,.00058688,4.2704,76.2590,33.8920,311.2075,0,U,28924,999,5254,0,.19E-6,0
ECHOSTAR 10,2006-003A,2026-07-08T14:36:48.876192,1.00271691,.00011373,0.0448,293.3144,159.4581,302.8142,0,U,28935,999,7467,0,-.41E-6,0
SPAINSAT,2006-007A,2026-07-08T06:55:56.580384,1.00271285,.00047936,0.6147,86.1867,19.9088,253.9596,0,U,28945,999,7442,0,-.202E-5,0
JCSAT-5A,2006-010A,2026-07-08T19:27:36.580320,1.00269355,.00017599,1.1622,83.9840,23.5363,243.1715,0,U,29045,999,7398,0,-.314E-5,0
ASTRA 1KR,2006-012A,2026-07-08T20:37:45.793920,1.00273328,.00033277,0.5266,83.1992,21.4700,150.5834,0,U,29055,999,4591,0,.133E-5,0
GALAXY 16 (G-16),2006-023A,2026-07-08T21:47:03.469920,1.00271748,.00025134,0.0317,124.0742,349.3459,41.1958,0,U,29236,999,7319,0,-.113E-5,0
EUTELSAT 33F,2006-032A,2026-07-08T18:59:20.653728,1.00268707,.00035231,1.7142,82.0037,21.6664,140.9921,0,U,29270,999,4752,0,.169E-5,0
